NAVSTAR 77 (USA 289)    
1 43873U 18109A   24046.67543800 -.00000027  00000+0  00000+0 0  9991
2 43873  55.2486 125.8692 0028838 193.9943 338.2645  2.00573896 37929
